GLOBALSTAR M023         
1 25621U 99004A   24200.74332027 -.00000009  00000+0  52808-3 0  9999
2 25621  52.0126 348.7603 0010945 110.3990 355.8198 12.62463393173613
GLOBALSTAR M040         
1 25622U 99004B   24200.74688750 -.00000088  00000+0  88089-4 0  9995
2 25622  51.9941 352.4089 0001293  65.6138  39.7983 12.61977221173157
GLOBALSTAR M036         
1 25623U 99004C   24200.89329178 -.00000005  00000+0  11335-2 0  9995
2 25623  51.9979  38.7914 0011662 127.7866 340.5443 11.86571103139396
GLOBALSTAR M038         
1 25624U 99004D   24201.52299135 -.00000075  00000+0  16233-3 0  9996
2 25624  51.9990 309.5905 0002384  92.9907 347.4013 12.32503061161315
GLOBALSTAR M022         
1 25649U 99012A   24200.92231579 -.00000070  00000+0  20828-3 0  9993
2 25649  52.0036 116.8568 0001927 233.6209 203.7795 12.02485082136288
GLOBALSTAR M041         
1 25650U 99012B   24201.52756777 -.00000080  00000+0  69009-4 0  9990
2 25650  52.0043 346.5200 0002857  43.9435 316.1629 11.96655739138703
GLOBALSTAR M046         
1 25651U 99012C   24201.13268031 -.00000157  00000+0 -75772-3 0  9998
2 25651  52.0058  78.5770 0002100 327.9727 192.9760 12.09392238143714
GLOBALSTAR M037         
1 25652U 99012D   24200.93825260 -.00000019  00000+0  47485-3 0  9995
2 25652  52.0001 118.9077 0001598 152.6911 285.3791 12.62412234169188
